start=new Date('2022-07-02T00:00:00.000Z').valueOf();
sats=[{"EPHEMERIS_TYPE":"0","NORAD_CAT_ID":"47677","PERIOD":"95.592","REV_AT_EPOCH":"7692","BSTAR":"0.00004579300000","SITE":"AFETR","RCS_SIZE":"LARGE","OBJECT_NAME":"STARLINK-2090","CLASSIFICATION_TYPE":"U","ARG_OF_PERICENTER":"61.9226","LAUNCH_DATE":"2021-02-16","PERIAPSIS":"546.137","TLE_LINE2":"2 47677  53.0554 359.4395 0001568  61.9226 298.1921 15.06397068 76920","COUNTRY_CODE":"US","MEAN_MOTION_DDOT":"0.0000000000000","RA_OF_ASC_NODE":"359.4395","INCLINATION":"53.0554","MEAN_MOTION_DOT":"0.00000401","DECAY_DATE":null,"CENTER_NAME":"EARTH","REF_FRAME":"TEME","APOAPSIS":"548.308","GP_ID":"207208357","MEAN_MOTION":"15.06397068","FILE":"3506285","TLE_LINE1":"1 47677U 21012BK  22182.48720344  .00000401  00000-0  45793-4 0  9991","TIME_SYSTEM":"UTC","MEAN_ELEMENT_THEORY":"SGP4","ELEMENT_SET_NO":"999","MEAN_ANOMALY":"298.1921","OBJECT_ID":"2021-012BK","SEMIMAJOR_AXIS":"6925.358","ECCENTRICITY":"0.00015680","EPOCH":"2022-07-01T11:41:34.377216","OBJECT_TYPE":"PAYLOAD"},{"FILE":"3506285","MEAN_MOTION":"15.06399085","MEAN_ELEMENT_THEORY":"SGP4","TLE_LINE1":"1 47679U 21012BM  22182.51668874  .00000122  00000-0  27063-4 0  9996","TIME_SYSTEM":"UTC","ECCENTRICITY":"0.00013870","SEMIMAJOR_AXIS":"6925.351","OBJECT_ID":"2021-012BM","EPOCH":"2022-07-01T12:24:01.907136","MEAN_ANOMALY":"267.6751","ELEMENT_SET_NO":"999","OBJECT_TYPE":"PAYLOAD","CLASSIFICATION_TYPE":"U","RCS_SIZE":"LARGE","SITE":"AFETR","OBJECT_NAME":"STARLINK-2095","NORAD_CAT_ID":"47679","PERIOD":"95.592","EPHEMERIS_TYPE":"0","REV_AT_EPOCH":"7694","BSTAR":"0.00002706300000","ARG_OF_PERICENTER":"92.4396","INCLINATION":"53.0556","MEAN_MOTION_DDOT":"0.0000000000000","RA_OF_ASC_NODE":"359.3272","PERIAPSIS":"546.256","LAUNCH_DATE":"2021-02-16","COUNTRY_CODE":"US","TLE_LINE2":"2 47679  53.0556 359.3272 0001387  92.4396 267.6751 15.06399085 76948","APOAPSIS":"548.177","REF_FRAME":"TEME","CENTER_NAME":"EARTH","DECAY_DATE":null,"GP_ID":"207209608","MEAN_MOTION_DOT":"0.00000122"},{"PERIAPSIS":"546.048","LAUNCH_DATE":"2021-03-04","TLE_LINE2":"2 47722  53.0522 124.3599 0001726  67.4626 292.6545 15.06390368 74949","COUNTRY_CODE":"US","INCLINATION":"53.0522","RA_OF_ASC_NODE":"124.3599","MEAN_MOTION_DDOT":"0.0000000000000","MEAN_MOTION_DOT":"-0.00000260","REF_FRAME":"TEME","APOAPSIS":"548.438","CENTER_NAME":"EARTH","DECAY_DATE":null,"GP_ID":"207209364","NORAD_CAT_ID":"47722","PERIOD":"95.593","EPHEMERIS_TYPE":"0","REV_AT_EPOCH":"7494","BSTAR":"0.00000145210000","CLASSIFICATION_TYPE":"U","SITE":"AFETR","OBJECT_NAME":"STARLINK-2068","RCS_SIZE":"LARGE","ARG_OF_PERICENTER":"67.4626","MEAN_ANOMALY":"292.6545","ELEMENT_SET_NO":"999","ECCENTRICITY":"0.00017260","SEMIMAJOR_AXIS":"6925.378","OBJECT_ID":"2021-017A","EPOCH":"2022-07-01T13:25:49.154016","OBJECT_TYPE":"PAYLOAD","MEAN_MOTION":"15.06390368","FILE":"3506285","TLE_LINE1":"1 47722U 21017A   22182.55959669 -.00000260  00000-0  14521-5 0  9999","TIME_SYSTEM":"UTC","MEAN_ELEMENT_THEORY":"SGP4"},{"CENTER_NAME":"EARTH","DECAY_DATE":null,"REF_FRAME":"TEME","APOAPSIS":"548.389","GP_ID":"207208112","MEAN_MOTION_DOT":"0.00002064","RA_OF_ASC_NODE":"59.9900","MEAN_MOTION_DDOT":"0.0000000000000","INCLINATION":"53.0554","LAUNCH_DATE":"2021-03-04","PERIAPSIS":"546.063","TLE_LINE2":"2 47723  53.0554  59.9900 0001680  80.8990 279.2189 15.06395928 75792","COUNTRY_CODE":"US","ARG_OF_PERICENTER":"80.8990","RCS_SIZE":"LARGE","SITE":"AFETR","OBJECT_NAME":"STARLINK-2107","CLASSIFICATION_TYPE":"U","EPHEMERIS_TYPE":"0","NORAD_CAT_ID":"47723","PERIOD":"95.592","REV_AT_EPOCH":"7579","BSTAR":"0.00015746000000","OBJECT_TYPE":"PAYLOAD","OBJECT_ID":"2021-017B","SEMIMAJOR_AXIS":"6925.361","ECCENTRICITY":"0.00016800","EPOCH":"2022-07-01T08:50:26.166624","ELEMENT_SET_NO":"999","MEAN_ANOMALY":"279.2189","MEAN_ELEMENT_THEORY":"SGP4","TLE_LINE1":"1 47723U 21017B   22182.36835841  .00002064  00000-0  15746-3 0  9995","TIME_SYSTEM":"UTC","FILE":"3506285","MEAN_MOTION":"15.06395928"},{"TIME_SYSTEM":"UTC","TLE_LINE1":"1 47724U 21017C   22182.80329012  .00001688  00000-0  13219-3 0  9997","MEAN_ELEMENT_THEORY":"SGP4","MEAN_MOTION":"15.06404520","FILE":"3506379","OBJECT_TYPE":"PAYLOAD","ELEMENT_SET_NO":"999","MEAN_ANOMALY":"278.7585","EPOCH":"2022-07-01T19:16:44.266368","OBJECT_ID":"2021-017C","SEMIMAJOR_AXIS":"6925.335","ECCENTRICITY":"0.00014790","ARG_OF_PERICENTER":"81.3571","REV_AT_EPOCH":"7520","BSTAR":"0.00013219000000","EPHEMERIS_TYPE":"0","PERIOD":"95.592","NORAD_CAT_ID":"47724","SITE":"AFETR","RCS_SIZE":"LARGE","OBJECT_NAME":"STARLINK-2116","CLASSIFICATION_TYPE":"U","MEAN_MOTION_DOT":"0.00001688","GP_ID":"207214465","CENTER_NAME":"EARTH","DECAY_DATE":null,"APOAPSIS":"548.224","REF_FRAME":"TEME","TLE_LINE2":"2 47724  53.0557  58.0334 0001479  81.3571 278.7585 15.06404520 75203","COUNTRY_CODE":"US","LAUNCH_DATE":"2021-03-04","PERIAPSIS":"546.175","MEAN_MOTION_DDOT":"0.0000000000000","RA_OF_ASC_NODE":"58.0334","INCLINATION":"53.0557"},{"MEAN_ELEMENT_THEORY":"SGP4","TIME_SYSTEM":"UTC","TLE_LINE1":"1 47725U 21017D   22182.57201744  .00001373  00000-0  11112-3 0  9994","FILE":"3506285","MEAN_MOTION":"15.06386283","OBJECT_TYPE":"PAYLOAD","EPOCH":"2022-07-01T13:43:42.306816","OBJECT_ID":"2021-017D","ECCENTRICITY":"0.00019320","SEMIMAJOR_AXIS":"6925.391","ELEMENT_SET_NO":"999","MEAN_ANOMALY":"296.2695","ARG_OF_PERICENTER":"63.8492","OBJECT_NAME":"STARLINK-2125","SITE":"AFETR","RCS_SIZE":"LARGE","CLASSIFICATION_TYPE":"U","BSTAR":"0.00011112000000","REV_AT_EPOCH":"7482","EPHEMERIS_TYPE":"0","NORAD_CAT_ID":"47725","PERIOD":"95.593","GP_ID":"207209613","CENTER_NAME":"EARTH","DECAY_DATE":null,"APOAPSIS":"548.594","REF_FRAME":"TEME","MEAN_MOTION_DOT":"0.00001373","MEAN_MOTION_DDOT":"0.0000000000000","RA_OF_ASC_NODE":"129.0783","INCLINATION":"53.0549","TLE_LINE2":"2 47725  53.0549 129.0783 0001932  63.8492 296.2695 15.06386283 74822","COUNTRY_CODE":"US","LAUNCH_DATE":"2021-03-04","PERIAPSIS":"545.918"},{"TLE_LINE1":"1 47726U 21017E   22182.55726216 -.00000387  00000-0 -70673-5 0  9994","TIME_SYSTEM":"UTC","MEAN_ELEMENT_THEORY":"SGP4","MEAN_MOTION":"15.06391137","FILE":"3506285","OBJECT_TYPE":"PAYLOAD","ELEMENT_SET_NO":"999","MEAN_ANOMALY":"297.8908","OBJECT_ID":"2021-017E","SEMIMAJOR_AXIS":"6925.376","ECCENTRICITY":"0.00019990","EPOCH":"2022-07-01T13:22:27.450624","ARG_OF_PERICENTER":"62.2283","EPHEMERIS_TYPE":"0","NORAD_CAT_ID":"47726","PERIOD":"95.593","REV_AT_EPOCH":"7481","BSTAR":"-0.00000706730000","RCS_SIZE":"LARGE","SITE":"AFETR","OBJECT_NAME":"STARLINK-2126","CLASSIFICATION_TYPE":"U","MEAN_MOTION_DOT":"-0.00000387","DECAY_DATE":null,"CENTER_NAME":"EARTH","REF_FRAME":"TEME","APOAPSIS":"548.625","GP_ID":"207209864","LAUNCH_DATE":"2021-03-04","PERIAPSIS":"545.856","COUNTRY_CODE":"US","TLE_LINE2":"2 47726  53.0547 129.1338 0001999  62.2283 297.8908 15.06391137 74819","MEAN_MOTION_DDOT":"0.0000000000000","RA_OF_ASC_NODE":"129.1338","INCLINATION":"53.0547"},{"REV_AT_EPOCH":"7588","BSTAR":"0.00014061000000","EPHEMERIS_TYPE":"0","PERIOD":"95.592","NORAD_CAT_ID":"47727","RCS_SIZE":"LARGE","SITE":"AFETR","OBJECT_NAME":"STARLINK-2129","CLASSIFICATION_TYPE":"U","ARG_OF_PERICENTER":"64.8317","COUNTRY_CODE":"US","TLE_LINE2":"2 47727  53.0560  51.7455 0001620  64.8317 295.2840 15.06398352 75883","LAUNCH_DATE":"2021-03-04","PERIAPSIS":"546.097","RA_OF_ASC_NODE":"51.7455","MEAN_MOTION_DDOT":"0.0000000000000","INCLINATION":"53.0560","MEAN_MOTION_DOT":"0.00001813","GP_ID":"207208613","DECAY_DATE":null,"CENTER_NAME":"EARTH","REF_FRAME":"TEME","APOAPSIS":"548.341","MEAN_MOTION":"15.06398352","FILE":"3506285","TIME_SYSTEM":"UTC","TLE_LINE1":"1 47727U 21017F   22181.97762831  .00001813  00000-0  14061-3 0  9993","MEAN_ELEMENT_THEORY":"SGP4","ELEMENT_SET_NO":"999","MEAN_ANOMALY":"295.2840","EPOCH":"2022-06-30T23:27:47.085984","OBJECT_ID":"2021-017F","ECCENTRICITY":"0.00016200","SEMIMAJOR_AXIS":"6925.354","OBJECT_TYPE":"PAYLOAD"},{"ELEMENT_SET_NO":"999","MEAN_ANOMALY":"295.4143","OBJECT_ID":"2021-017G","SEMIMAJOR_AXIS":"6925.366","ECCENTRICITY":"0.00018720","EPOCH":"2022-07-01T07:58:40.931616","OBJECT_TYPE":"PAYLOAD","MEAN_MOTION":"15.06394425","FILE":"3506285","TLE_LINE1":"1 47728U 21017G   22182.33241819 -.00000601  00000-0 -21451-4 0  9991","TIME_SYSTEM":"UTC","MEAN_ELEMENT_THEORY":"SGP4","LAUNCH_DATE":"2021-03-04","PERIAPSIS":"545.934","TLE_LINE2":"2 47728  53.0534 130.1473 0001872  64.7040 295.4143 15.06394425 74848","COUNTRY_CODE":"US","MEAN_MOTION_DDOT":"0.0000000000000","RA_OF_ASC_NODE":"130.1473","INCLINATION":"53.0534","MEAN_MOTION_DOT":"-0.00000601","CENTER_NAME":"EARTH","DECAY_DATE":null,"APOAPSIS":"548.527","REF_FRAME":"TEME","GP_ID":"207208863","EPHEMERIS_TYPE":"0","NORAD_CAT_ID":"47728","PERIOD":"95.592","REV_AT_EPOCH":"7484","BSTAR":"-0.00002145100000","RCS_SIZE":"LARGE","SITE":"AFETR","OBJECT_NAME":"STARLINK-2131","CLASSIFICATION_TYPE":"U","ARG_OF_PERICENTER":"64.7040"},{"PERIOD":"95.592","NORAD_CAT_ID":"47729","EPHEMERIS_TYPE":"0","REV_AT_EPOCH":"7556","BSTAR":"0.00016169000000","CLASSIFICATION_TYPE":"U","OBJECT_NAME":"STARLINK-2132","SITE":"AFETR","RCS_SIZE":"LARGE","ARG_OF_PERICENTER":"80.6812","PERIAPSIS":"546.107","LAUNCH_DATE":"2021-03-04","TLE_LINE2":"2 47729  53.0569  74.9213 0001600  80.6812 279.4358 15.06399355 75564","COUNTRY_CODE":"US","INCLINATION":"53.0569","RA_OF_ASC_NODE":"74.9213","MEAN_MOTION_DDOT":"0.0000000000000","MEAN_MOTION_DOT":"0.00002128","APOAPSIS":"548.324","REF_FRAME":"TEME","DECAY_DATE":null,"CENTER_NAME":"EARTH","GP_ID":"207209114","MEAN_MOTION":"15.06399355","FILE":"3506285","TLE_LINE1":"1 47729U 21017H   22182.42782788  .00002128  00000-0  16169-3 0  9990","TIME_SYSTEM":"UTC","MEAN_ELEMENT_THEORY":"SGP4","MEAN_ANOMALY":"279.4358","ELEMENT_SET_NO":"999","SEMIMAJOR_AXIS":"6925.351","ECCENTRICITY":"0.00016000","OBJECT_ID":"2021-017H","EPOCH":"2022-07-01T10:16:04.328832","OBJECT_TYPE":"PAYLOAD"}];
